0 DELTA 2 R/B
1 21228U 91028B   13280.95533909  .00000837  00000-0  31313-3 0  1165
2 21228 023.9934 109.4244 1146743 134.9953 350.2865 12.52476701 28544
0 DELTA 2 R/B
1 21228U 91028B   13282.53116303  .00000895  00000-0  33800-3 0  1174
2 21228 023.9949 102.2265 1146697 147.4947 255.5452 12.52481109 28743
0 DELTA 2 R/B
1 21228U 91028B   13283.82057904  .00000864  00000-0  32193-3 0  1189
2 21228 023.9964 096.3375 1146640 157.7203 309.4300 12.52483590 28907
0 DELTA 2 R/B
1 21228U 91028B   13285.89978605  .00000859  00000-0  31710-3 0  1209
2 21228 023.9985 086.8420 1146664 174.2096 324.4489 12.52486555 29163
0 DELTA 2 R/B
1 21228U 91028B   13287.47827206  .00000888  00000-0  32850-3 0  1214
2 21228 024.0001 079.6347 1146733 186.7265 241.7637 12.52489234 29360
0 DELTA 2 R/B
1 21228U 91028B   13288.51316176  .00001069  00000-0  41030-3 0  1222
2 21228 024.0010 074.9094 1146803 194.9328 228.0389 12.52491306 29495
0 DELTA 2 R/B
1 21228U 91028B   13289.64387137  .00000909  00000-0  33612-3 0  1232
2 21228 024.0020 069.7475 1146836 203.8972 286.3703 12.52493771 29633
0 DELTA 2 R/B
1 21228U 91028B   13290.68344212  .00000969  00000-0  36275-3 0  1240
2 21228 024.0026 065.0024 1146928 212.1396 293.7713 12.52496077 29762
0 DELTA 2 R/B
1 21228U 91028B   13291.88144220  .00000980  00000-0  36702-3 0  1259
2 21228 024.0033 059.5341 1146961 221.6377 295.5355 12.52498035 29916
0 DELTA 2 R/B
1 21228U 91028B   13293.54280852  .00000981  00000-0  36751-3 0  1262
2 21228 024.0036 051.9508 1146992 234.8083 226.6252 12.52501697 30129
0 DELTA 2 R/B
1 21228U 91028B   13294.83186267  .00000992  00000-0  37230-3 0  1276
2 21228 024.0035 046.0671 1147004 245.0283 278.9749 12.52504140 30289
